# From MPEC 2024-JU4
C/2020 P3 (ATLAS),h,04/22.8996/2021,61.8566,19.4838,82.3479,1.003670,6.815950,2000,6.0,4.0
# From MPEC 2022-PB4
C/2020 PV6 (PANSTARRS),e,128.1558,329.1292,71.2836,41.67139,0.0036639,0.94501905,4.9799,06/16.0/2025,2000,g 10.0,4.0
# From MPEC 2022-L66
C/2020 Q1 (Borisov),e,142.9243,52.4111,10.0276,62.33259,0.0020028,0.97883293,0.0000,08/15.2846/2020,2000,g 14.0,4.0
# From MPEC 2023-CD7
C/2020 Q2 (PANSTARRS),e,3.3357,179.8266,118.2108,10.60279,0.0285479,0.48886454,56.2133,06/16.0/2025,2000,g 12.0,3.2
# From MPEC 2024-F34
C/2020 R2 (PANSTARRS),e,53.2162,195.1257,211.8831,430.4727,0.0001104,0.98908377,0.0000,02/25.3583/2022,2000,g  9.0,4.0
# From MPEC 2022-K19
C/2020 R4 (ATLAS),e,164.4048,323.2344,46.5169,97.31435,0.0010267,0.98951049,0.0000,03/02.2246/2021,2000,g 13.5,4.0
# From MPEC 2023-C45
P/2020 R5 (PANSTARRS),e,11.4395,272.9387,82.7552,4.993225,0.0883349,0.31315021,163.0197,06/16.0/2025,2000,g  9.5,6.0
# From MPEC 2021-Y10
C/2020 R6 (Rankin),e,82.8889,12.2334,271.9982,291.2853,0.0001983,0.98922231,0.0000,09/06.8534/2019,2000,g 11.0,4.0
# From MPEC 2024-PC5
C/2020 R7 (ATLAS),e,114.9031,268.3095,347.7636,8893,0.0000012,0.99966805,0.0000,09/16.0429/2022,2000,g  7.0,3.2
# From MPEC 2021-BE3
P/2020 S1 (PANSTARRS),e,13.7150,129.4915,255.1608,6.001852,0.0670311,0.50688544,107.9903,06/16.0/2025,2000,g 14.0,4.0
# From MPEC 2022-ST7
C/2020 S2 (PANSTARRS),e,22.3759,197.7090,202.4227,10.25056,0.0300319,0.82794593,49.1605,06/16.0/2025,2000,g 17.0,4.0
# From MPEC 2024-JU4
C/2020 S3 (Erasmus),e,20.0641,222.5217,350.0483,141.4375,0.0005859,0.99722344,0.0000,12/11.3793/2020,2000,g 13.5,3.2
# From MPEC 2024-N80
C/2020 S4 (PANSTARRS),h,02/09.5671/2023,20.5700,117.6833,21.0578,1.002719,3.370402,2000,8.5,3.2
# From MPEC 2021-BE3
P/2020 S5 (PANSTARRS),e,12.3402,316.0215,53.2758,4.058405,0.1205511,0.33735411,213.7356,06/16.0/2025,2000,g 14.5,4.0
# From MPEC 2021-BE3
P/2020 S7 (PANSTARRS),e,16.0705,328.0833,40.6625,5.036709,0.0871934,0.40952798,145.7354,06/16.0/2025,2000,g 14.5,4.0
# From MPEC 2021-P47
C/2020 S8 (Lemmon),e,108.5428,24.0105,160.1317,239.4791,0.0002660,0.99016311,0.0000,04/10.3748/2021,2000,g 12.5,4.0
# From MPEC 2022-TD3
C/2020 T2 (Palomar),e,27.8395,83.0355,150.3479,269.7823,0.0002224,0.99239141,0.0000,07/10.5658/2021,2000,g 11.0,3.2
# From MPEC 2021-N06
P/2020 T3 (PANSTARRS),e,7.2985,73.9919,357.0793,3.516107,0.1494896,0.59243689,240.0428,06/16.0/2025,2000,g 18.0,3.2
# From MPEC 2021-N06
C/2020 T4 (PANSTARRS),h,07/06.0739/2021,83.8293,50.6077,79.5707,1.000642,2.187705,2000,13.0,3.2
# From MPEC 2021-BE3
C/2020 T5 (Lemmon),e,66.5567,237.8425,90.3837,609.1074,0.0000656,0.99688431,0.0000,10/07.7723/2020,2000,g 16.0,4.0
# From MPEC 2021-N06
P/2020 U2 (PANSTARRS),e,6.4197,342.8180,84.7685,3.777878,0.1342246,0.51133903,219.0027,06/16.0/2025,2000,g 18.0,4.0
# From MPEC 2021-W31
C/2020 U3 (Rankin),e,30.1389,282.6013,124.5116,67.65394,0.0017712,0.96621842,2.8179,06/16.0/2025,2000,g 15.0,4.0
# From MPEC 2024-TD8
C/2020 U4 (PANSTARRS),h,04/09.9949/2022,167.0033,120.4059,70.1731,1.001199,5.361792,2000,7.0,4.0
# From MPEC 2024-GJ3
C/2020 U5 (PANSTARRS),e,97.3113,107.3132,75.4658,10523,0.0000009,0.99964299,0.0000,04/28.3672/2022,2000,g  8.0,4.0
# From MPC184409
C/2020 V2 (ZTF),h,05/08.5223/2023,131.6123,212.3983,162.4557,1.001047,2.229239,2000,4.9,4.0
# From MPEC 2023-D72
P/2020 V3 (PANSTARRS),e,23.0214,198.2687,249.7959,8.407667,0.0404288,0.25788624,63.9359,06/16.0/2025,2000,g  8.3,4.0
# From MPEC 2024-F34
P/2020 V4 (Rankin),e,14.2371,203.4888,257.2473,9.397696,0.0342115,0.45158747,48.7974,06/16.0/2025,2000,g  9.0,4.0
# From MPEC 2021-BE3
P/2020 W1 (Rankin),e,10.7773,124.3863,265.3914,7.225937,0.0507414,0.26549434,96.0341,06/16.0/2025,2000,g 10.0,4.0
# From MPEC 2021-BE3
C/2020 W5 (Lemmon),h,11/30.9127/2020,88.6157,75.4671,24.6042,1.002139,3.370742,2000,15.0,4.0
# From MPEC 2024-PC5
P/2020 WJ5 (Lemmon),e,22.2881,177.7647,338.0856,6.015536,0.0668025,0.17211665,96.6281,06/16.0/2025,2000,g  8.5,4.0
# From MPEC 2024-F34
P/2020 X1 (ATLAS),e,31.6919,55.9874,323.5275,4.536132,0.1020177,0.36442004,182.8164,06/16.0/2025,2000,g 13.0,4.0
# From MPEC 2024-A43
C/2020 X2 (ATLAS),e,18.1865,105.3566,347.5662,16.54037,0.0146516,0.76831512,24.4950,06/16.0/2025,2000,g 10.6,4.0
# From MPEC 2021-S45
C/2020 X4 (Leonard),e,80.6574,161.9534,140.2930,40.59063,0.0038112,0.87129815,6.3783,06/16.0/2025,2000,g  9.0,4.0
# From MPEC 2024-YC7
C/2020 Y2 (ATLAS),e,101.2111,26.5387,266.4143,1282,0.0000215,0.99754509,0.0000,06/17.7891/2022,2000,g  6.5,4.0
# From MPEC 2021-R75
C/2020 Y3 (ATLAS),e,83.1422,191.3477,341.8513,137.5488,0.0006110,0.98552964,0.0000,12/03.2285/2020,2000,g 13.5,4.0
# From MPEC 2025-A40
C/2021 A1 (Leonard),h,01/03.7946/2022,132.7542,255.9113,225.1372,1.000241,0.615408,2000,8.5,4.0
# From MPEC 2025-A40
C/2021 A2 (NEOWISE),e,107.0532,125.0642,338.7982,229.3478,0.0002838,0.99382544,0.0000,01/21.8843/2021,2000,g 13.5,4.0
# From MPEC 2022-ED3
C/2021 A4 (NEOWISE),e,111.6449,307.0899,204.7529,42.52099,0.0035547,0.97294757,0.0000,03/19.5722/2021,2000,g 16.0,4.0
# From MPEC 2021-BE3
P/2021 A5 (PANSTARRS),e,18.1893,328.8096,61.5323,3.046420,0.1853615,0.13980055,310.2743,06/16.0/2025,2000,g 15.0,4.0
# From MPEC 2024-P23
C/2021 A6 (PANSTARRS),e,75.5642,164.0263,351.6248,12028,0.0000007,0.99934115,0.0000,05/03.0640/2021,2000,g  7.0,4.0
# From MPEC 2022-M88
C/2021 A7 (NEOWISE),e,78.2165,154.4040,356.0000,1882,0.0000121,0.99895571,0.0000,07/15.1572/2021,2000,g 10.0,4.0
# From MPC182879
C/2021 A9 (PANSTARRS),h,12/03.9660/2023,158.0181,314.8533,211.6345,1.000121,7.763687,2000,6.0,4.0
# From MPEC 2021-N06
C/2021 A10 (NEOWISE),e,151.9940,188.8378,82.6408,89.68624,0.0011604,0.98587663,0.0000,03/14.7228/2021,2000,g 19.0,4.0
# From MPEC 2022-L66
C/2021 B2 (PANSTARRS),e,38.0868,120.4399,335.1158,407.8928,0.0001196,0.99383450,0.0000,05/04.8436/2021,2000,g 14.0,4.0
# From MPEC 2021-N06
C/2021 B3 (NEOWISE),e,119.4774,67.2819,293.6017,34.22281,0.0049230,0.93664664,7.6784,06/16.0/2025,2000,g 13.5,4.0
# From MPEC 2023-KD6
C/2021 C1 (Rankin),e,143.0430,186.8287,336.0614,1851,0.0000124,0.99812402,0.0000,12/05.7563/2020,2000,g 11.5,4.0
# From MPEC 2021-U31
P/2021 C2 (PANSTARRS),e,21.9384,66.4554,78.7220,9.545424,0.0334204,0.48836432,52.5501,06/16.0/2025,2000,g 12.0,4.0
# From MPEC 2024-M41
C/2021 C3 (Catalina),e,122.2069,181.8540,356.9763,60.43647,0.0020978,0.96237233,3.3268,06/16.0/2025,2000,g 14.0,4.0
# From MPEC 2022-M88
C/2021 C4 (ATLAS),e,132.8319,194.2297,320.0280,3856,0.0000041,0.99883479,0.0000,01/16.1880/2021,2000,g  9.0,4.0
# From MPEC 2024-N80
C/2021 C5 (PANSTARRS),e,50.8027,323.6735,270.8903,1708,0.0000140,0.99810269,0.0000,02/10.9800/2023,2000,g  9.0,4.0
# From MPEC 2022-YB4
C/2021 C6 (Lemmon),e,164.6091,332.3265,203.8572,2698,0.0000070,0.99878267,0.0000,11/11.9133/2021,2000,g 12.0,4.0
# From MPEC 2022-F14
C/2021 D1 (SWAN),e,31.3569,311.1643,72.4568,102.0260,0.0009564,0.99109987,0.0000,02/27.3554/2021,2000,g 13.0,4.0
# From MPEC 2023-J29
C/2021 D2 (ZTF),h,02/03.6559/2022,83.7723,305.6290,125.0664,1.001433,2.949461,2000,9.0,4.0
# From MPEC 2022-UY9
A/2021 E2,e,167.4936,190.7522,342.2220,200.5388,0.0003471,0.98861576,0.0000,12/08.9682/2020,2000,g 15.0,2.0
# From MPEC 2024-GJ3
C/2021 E3 (ZTF),e,112.5253,104.4839,228.8014,13343,0.0000006,0.99986678,0.0000,06/11.1566/2022,2000,g  8.5,4.0
# From MPEC 2024-N80
A/2021 E4,e,116.3809,171.1419,48.2819,504.4946,0.0000870,0.99072390,0.0000,04/24.8323/2022,2000,g 13.5,2.0
# From MPEC 2022-QD9
C/2021 F1 (Lemmon-PANSTARRS),e,107.2918,203.5467,146.9441,248.2970,0.0002519,0.99597576,0.0000,04/06.7371/2022,2000,g 13.5,4.0
# From MPEC 2021-J72
C/2021 G1 (Leonard),e,131.5469,270.6977,107.4346,71.08546,0.0016445,0.95177986,2.3461,06/16.0/2025,2000,g 14.0,4.0
# From MPC184409
C/2021 G2 (ATLAS),h,09/09.1375/2024,48.4671,221.0947,343.2669,1.000720,4.982293,2000,5.5,4.0
# From MPEC 2022-X67
C/2021 G3 (PANSTARRS),e,102.8726,147.3466,10.5973,8793,0.0000012,0.99941059,0.0000,10/17.8535/2021,2000,g 10.5,4.0
# From MPEC 2021-Y10
P/2021 HS (PANSTARRS),e,12.1544,262.3583,46.1189,4.193409,0.1147766,0.80944235,161.9727,06/16.0/2025,2000,g 22.0,4.0
# From MPEC 2022-C56
C/2021 J1 (Maury-Attard),e,92.7078,88.4320,147.2001,26.19945,0.0073496,0.93381484,11.5946,06/16.0/2025,2000,g 15.5,4.0
# From MPEC 2023-XP6
C/2021 J2 (PANSTARRS),e,156.2116,23.3096,171.8850,111.8854,0.0008328,0.95797946,1.1361,06/16.0/2025,2000,g 12.0,4.0
# From MPEC 2024-F34
P/2021 J3 (ATLAS),e,14.5152,111.0035,125.6344,8.890540,0.0371802,0.44938599,80.9643,06/16.0/2025,2000,g  7.0,4.0
# From MPEC 2022-O08
C/2021 K1 (ATLAS),e,16.2712,140.9237,184.2245,12.60564,0.0220220,0.80150915,33.1562,06/16.0/2025,2000,g 11.0,4.0
# From MPEC 2022-O01
C/2021 K2 (MASTER),h,09/09.2562/2021,100.8711,282.3372,343.2789,1.000466,5.463844,2000,8.0,4.0
# From MPEC 2022-L66
C/2021 K3 (Catalina),h,02/03.6540/2022,134.7805,114.6076,182.0144,1.004204,5.227739,2000,10.0,4.0
# From MPEC 2021-W31
P/2021 L2 (Leonard),e,21.0645,266.6532,51.4328,4.047494,0.1210389,0.52081093,172.3785,06/16.0/2025,2000,g 17.0,4.0
# From MPEC 2024-H50
C/2021 L3 (Borisov),h,02/14.9902/2022,78.5387,345.0166,91.6507,1.004554,8.460240,2000,6.0,4.0
# From MPEC 2022-TA0
P/2021 N1 (ZTF),e,11.4856,301.1354,21.2260,2.979772,0.1916150,0.67572835,282.0417,06/16.0/2025,2000,g 19.0,4.0
# From MPEC 2024-GJ3
P/2021 N2 (Fuls),e,13.0601,221.7429,177.6286,6.946774,0.0538306,0.45215178,70.5087,06/16.0/2025,2000,g  9.5,4.0
# From MPEC 2022-YB4
C/2021 N3 (PANSTARRS),e,26.7633,337.5257,304.6013,140.5391,0.0005916,0.95935525,1.0436,06/16.0/2025,2000,g  8.5,4.0
# From MPEC 2022-A21
C/2021 O1 (Nishimura),e,27.5710,41.5430,74.4266,4875,0.0000029,0.99983942,0.0000,08/14.7571/2021,2000,g 10.5,4.0
# From MPEC 2022-L66
C/2021 O3 (PANSTARRS),h,04/21.2828/2022,56.8272,188.7907,300.0182,1.000051,0.285119,2000,10.5,4.0
# From MPEC 2024-F34
C/2021 P1 (PANSTARRS),e,51.6205,359.7112,40.5254,2705,0.0000070,0.99838069,0.0000,06/02.5738/2022,2000,g 11.0,4.0
# From MPC184409
